{
  "norad_id": 67399,
  "name": "TOMORROW-S11",
  "history": [
    {
      "epoch": "2026-03-28T22:24:25.752960",
      "apogee_km": 513.3077765354319,
      "perigee_km": 505.6505381486686,
      "latitude_deg": 6.88208680222384,
      "longitude_deg": -70.47138560004532,
      "semi_major_axis_km": 6887.61615734205,
      "eccentricity": 0.00055587,
      "inclination_deg": 97.4574,
      "raan_deg": 88.2095,
      "arg_perigee_deg": 264.6908,
      "mean_anomaly_deg": 95.3692,
      "mean_motion_rev_day": 15.18795696
    },
    {
      "epoch": "2026-03-28T23:59:18.101184",
      "apogee_km": 513.2999686469266,
      "perigee_km": 505.6492096936754,
      "latitude_deg": 77.06232883528887,
      "longitude_deg": -64.14655424025841,
      "semi_major_axis_km": 6887.6115891703,
      "eccentricity": 0.0005554,
      "inclination_deg": 97.4574,
      "raan_deg": 88.2745,
      "arg_perigee_deg": 264.4229,
      "mean_anomaly_deg": 95.6372,
      "mean_motion_rev_day": 15.18797207
    }
  ]
}